NORAD_CAT_ID,OBJECT_NAME,OBJECT_TYPE,EPOCH,MEAN_MOTION,ECCENTRICITY,INCLINATION,RA_OF_ASC_NODE,ARG_OF_PERICENTER,MEAN_ANOMALY,BSTAR,MEAN_MOTION_DOT,MEAN_MOTION_DDOT,TLE_LINE0,TLE_LINE1,TLE_LINE2,SEMIMAJOR_AXIS,PERIOD,APOGEE,PERIGEE,DECAYED
53714.0,STARLINK-4688,PAYLOAD,2024-06-30 05:46:06,15.08836759,0.0001332,53.2174,120.7328,95.6725,264.4419,-3.4611e-05,-8.39e-06,0.0,0 STARLINK-4688,1 53714U 22107Q   24182.24035421 -.00000839  00000-0 -34611-4 0  9991,2 53714  53.2174 120.7328 0001332  95.6725 264.4419 15.08836759101543,6917.89,95.438,540.677,538.834,0.0
53714.0,STARLINK-4688,PAYLOAD,2024-07-01 02:26:07,15.08838423,0.0001197,53.2175,116.869,89.3309,270.782,0.0001035,1.36e-05,0.0,0 STARLINK-4688,1 53714U 22107Q   24183.10147108  .00001360  00000-0  10350-3 0  9994,2 53714  53.2175 116.8690 0001197  89.3309 270.7820 15.08838423101231,6917.885,95.438,540.578,538.922,0.0
53714.0,STARLINK-4688,PAYLOAD,2024-07-01 05:36:53,15.08843872,0.0001287,53.2173,116.274,88.9303,271.1837,7.1099e-05,8.44e-06,0.0,0 STARLINK-4688,1 53714U 22107Q   24183.23394923  .00000844  00000-0  71099-4 0  9991,2 53714  53.2173 116.2740 0001287  88.9303 271.1837 15.08843872101695,6917.869,95.437,540.624,538.843,0.0
53714.0,STARLINK-4688,PAYLOAD,2024-07-01 19:55:21,15.08834276,0.000131,53.2173,113.5976,93.4761,266.6381,0.00016832,2.392e-05,0.0,0 STARLINK-4688,1 53714U 22107Q   24183.83011371  .00002392  00000-0  16832-3 0  9993,2 53714  53.2173 113.5976 0001310  93.4761 266.6381 15.08834276101783,6917.898,95.438,540.669,538.857,0.0
53714.0,STARLINK-4688,PAYLOAD,2024-07-02 02:16:54,15.08837313,0.0001141,53.2163,112.4072,89.5428,270.5695,0.0001212,1.641e-05,0.0,0 STARLINK-4688,1 53714U 22107Q   24184.09507477  .00001641  00000-0  12120-3 0  9991,2 53714  53.2163 112.4072 0001141  89.5428 270.5695 15.08837313101827,6917.889,95.438,540.543,538.964,0.0
53714.0,STARLINK-4688,PAYLOAD,2024-07-02 19:46:09,15.08835477,0.0001144,53.2161,109.1354,87.8512,272.2611,3.0399e-05,1.96e-06,0.0,0 STARLINK-4688,1 53714U 22107Q   24184.82372002  .00000196  00000-0  30399-4 0  9999,2 53714  53.2161 109.1354 0001144  87.8512 272.2611 15.08835477101498,6917.894,95.438,540.551,538.968,0.0
53714.0,STARLINK-4688,PAYLOAD,2024-07-03 02:07:43,15.08821101,0.0001055,53.2162,107.9463,80.0849,280.0262,-9.9115e-05,-1.864e-05,0.0,0 STARLINK-4688,1 53714U 22107Q   24185.08869399 -.00001864  00000-0 -99115-4 0  9994,2 53714  53.2162 107.9463 0001055  80.0849 280.0262 15.08821101101538,6917.938,95.439,540.533,539.073,0.0
53714.0,STARLINK-4688,PAYLOAD,2024-07-04 03:33:52,15.08838325,0.000126,53.2172,103.1897,99.154,260.9594,0.00011631,1.564e-05,0.0,0 STARLINK-4688,1 53714U 22107Q   24186.14852592  .00001564  00000-0  11631-3 0  9990,2 53714  53.2172 103.1897 0001260  99.1540 260.9594 15.08838325101693,6917.886,95.438,540.622,538.879,0.0
53714.0,STARLINK-4688,PAYLOAD,2024-07-04 11:30:47,15.08845929,0.0001319,53.217,101.7033,116.0751,244.0377,0.00028746,4.291e-05,0.0,0 STARLINK-4688,1 53714U 22107Q   24186.47972214  .00004291  00000-0  28746-3 0  9995,2 53714  53.2170 101.7033 0001319 116.0751 244.0377 15.08845929102180,6917.862,95.437,540.64,538.815,0.0
53714.0,STARLINK-4688,PAYLOAD,2024-07-04 22:38:30,15.08841849,0.0001274,53.2176,99.6222,92.4711,267.6427,0.00040316,6.135e-05,0.0,0 STARLINK-4688,1 53714U 22107Q   24186.94340675  .00006135  00000-0  40316-3 0  9993,2 53714  53.2176  99.6222 0001274  92.4711 267.6427 15.08841849102256,6917.875,95.437,540.621,538.858,0.0
53714.0,STARLINK-4688,PAYLOAD,2024-07-05 11:21:34,15.08869383,9.15e-05,53.2156,97.2402,84.7379,275.3717,0.00061662,9.547e-05,0.0,0 STARLINK-4688,1 53714U 22107Q   24187.47331132  .00009547  00000-0  61662-3 0  9997,2 53714  53.2156  97.2402 0000915  84.7379 275.3717 15.08869383102333,6917.791,95.436,540.289,539.023,0.0
53714.0,STARLINK-4688,PAYLOAD,2024-07-05 22:29:16,15.08841505,0.0001127,53.2155,95.1611,99.6376,260.4744,-0.00017389,-3.054e-05,0.0,0 STARLINK-4688,1 53714U 22107Q   24187.93699803 -.00003054  00000-0 -17389-3 0  9996,2 53714  53.2155  95.1611 0001127  99.6376 260.4744 15.08841505102408,6917.876,95.437,540.52,538.961,0.0
53714.0,STARLINK-4688,PAYLOAD,2024-07-06 03:15:25,15.08849672,0.000107,53.2162,94.2688,100.0239,260.0874,4.498e-05,4.28e-06,0.0,0 STARLINK-4688,1 53714U 22107Q   24188.13571604  .00000428  00000-0  44980-4 0  9995,2 53714  53.2162  94.2688 0001070 100.0239 260.0874 15.08849672101998,6917.851,95.437,540.456,538.976,0.0
53714.0,STARLINK-4688,PAYLOAD,2024-07-06 11:12:21,15.08849244,0.0001069,53.2162,92.7828,89.742,270.3694,0.00020261,2.939e-05,0.0,0 STARLINK-4688,1 53714U 22107Q   24188.46691355  .00002939  00000-0  20261-3 0  9991,2 53714  53.2162  92.7828 0001069  89.7420 270.3694 15.08849244102484,6917.852,95.437,540.457,538.978,0.0
53714.0,STARLINK-4688,PAYLOAD,2024-07-06 22:20:03,15.08835325,0.0001393,53.217,90.6996,98.1465,261.9685,2.6507e-05,1.34e-06,0.0,0 STARLINK-4688,1 53714U 22107Q   24188.93059992  .00000134  00000-0  26507-4 0  9993,2 53714  53.2170  90.6996 0001393  98.1465 261.9685 15.08835325102558,6917.895,95.438,540.723,538.796,0.0
53714.0,STARLINK-4688,PAYLOAD,2024-07-06 23:55:26,15.08834829,0.0001299,53.2166,90.4027,91.2215,268.8926,8.7784e-05,1.109e-05,0.0,0 STARLINK-4688,1 53714U 22107Q   24188.99683982  .00001109  00000-0  87784-4 0  9998,2 53714  53.2166  90.4027 0001299  91.2215 268.8926 15.08834829102123,6917.896,95.438,540.66,538.863,0.0
53714.0,STARLINK-4688,PAYLOAD,2024-07-07 22:10:51,15.08845929,0.0001287,53.2158,86.2406,90.1966,269.9173,0.00062488,9.673e-05,0.0,0 STARLINK-4688,1 53714U 22107Q   24189.92420281  .00009673  00000-0  62488-3 0  9990,2 53714  53.2158  86.2406 0001287  90.1966 269.9173 15.08845929102260,6917.862,95.437,540.618,538.837,0.0
53714.0,STARLINK-4688,PAYLOAD,2024-07-08 20:26:14,15.08846067,0.0001385,53.2172,82.0753,99.7991,260.3158,0.00027485,4.09e-05,0.0,0 STARLINK-4688,1 53714U 22107Q   24190.85156122  .00004090  00000-0  27485-3 0  9990,2 53714  53.2172  82.0753 0001385  99.7991 260.3158 15.08846067102405,6917.862,95.437,540.685,538.769,0.0
53714.0,STARLINK-4688,PAYLOAD,2024-07-08 22:01:38,15.08843859,0.0001326,53.2168,81.7783,97.7017,262.4126,0.00021811,3.185e-05,0.0,0 STARLINK-4688,1 53714U 22107Q   24190.91780197  .00003185  00000-0  21811-3 0  9993,2 53714  53.2168  81.7783 0001326  97.7017 262.4126 15.08843859102854,6917.869,95.437,540.651,538.816,0.0
53714.0,STARLINK-4688,PAYLOAD,2024-07-09 09:09:19,15.08851205,0.0001238,53.2171,79.6998,88.788,271.3254,0.00026625,3.953e-05,0.0,0 STARLINK-4688,1 53714U 22107Q   24191.38147778  .00003953  00000-0  26625-3 0  9998,2 53714  53.2171  79.6998 0001238  88.7880 271.3254 15.08851205102925,6917.846,95.437,540.568,538.855,0.0
53714.0,STARLINK-4688,PAYLOAD,2024-07-09 20:17:02,15.08834977,0.0001837,53.2177,77.6253,119.4451,240.6724,-4.2575e-05,-9.66e-06,0.0,0 STARLINK-4688,1 53714U 22107Q   24191.84516771 -.00000966  00000-0 -42575-4 0  9998,2 53714  53.2177  77.6253 0001837 119.4451 240.6724 15.08834977102551,6917.896,95.438,541.032,538.49,0.0
53714.0,STARLINK-4688,PAYLOAD,2024-07-09 21:52:25,15.08826645,0.000128,53.2159,77.3179,73.6109,286.5024,-0.00019408,-3.374e-05,0.0,0 STARLINK-4688,1 53714U 22107Q   24191.91140866 -.00003374  00000-0 -19408-3 0  9998,2 53714  53.2159  77.3179 0001280  73.6109 286.5024 15.08826645103004,6917.921,95.438,540.672,538.901,0.0
53714.0,STARLINK-4688,PAYLOAD,2024-07-10 09:00:07,15.08840811,0.0001287,53.2168,75.2396,96.0488,264.0651,9.1175e-05,1.163e-05,0.0,0 STARLINK-4688,1 53714U 22107Q   24192.37508528  .00001163  00000-0  91175-4 0  9996,2 53714  53.2168  75.2396 0001287  96.0488 264.0651 15.08840811103073,6917.878,95.438,540.633,538.853,0.0
53714.0,STARLINK-4688,PAYLOAD,2024-07-10 21:43:12,15.08837606,0.0001322,53.2178,72.8611,100.2701,259.8441,8.3945e-05,1.048e-05,0.0,0 STARLINK-4688,1 53714U 22107Q   24192.90500879  .00001048  00000-0  83945-4 0  9994,2 53714  53.2178  72.8611 0001322 100.2701 259.8441 15.08837606103159,6917.888,95.438,540.667,538.838,0.0
53714.0,STARLINK-4688,PAYLOAD,2024-07-11 02:29:22,15.08841125,0.0001151,53.2169,71.9671,95.8811,264.2312,0.00016471,2.335e-05,0.0,0 STARLINK-4688,1 53714U 22107Q   24193.10372739  .00002335  00000-0  16471-3 0  9998,2 53714  53.2169  71.9671 0001151  95.8811 264.2312 15.08841125103187,6917.877,95.437,540.538,538.946,0.0
53714.0,STARLINK-4688,PAYLOAD,2024-07-12 00:44:45,15.08845214,0.0001245,53.2175,67.803,85.6485,274.465,0.00025144,3.717e-05,0.0,0 STARLINK-4688,1 53714U 22107Q   24194.03108708  .00003717  00000-0  25144-3 0  9996,2 53714  53.2175  67.8030 0001245  85.6485 274.4650 15.08845214102882,6917.864,95.437,540.591,538.868,0.0
53714.0,STARLINK-4688,PAYLOAD,2024-07-12 08:41:41,15.08847871,0.0001262,53.2176,66.3161,83.5811,276.5325,0.00021131,3.077e-05,0.0,0 STARLINK-4688,1 53714U 22107Q   24194.36228517  .00003077  00000-0  21131-3 0  9994,2 53714  53.2176  66.3161 0001262  83.5811 276.5325 15.08847871103379,6917.856,95.437,540.594,538.848,0.0
53714.0,STARLINK-4688,PAYLOAD,2024-07-12 21:24:47,15.08834551,9.83e-05,53.2174,63.9366,90.3778,269.7326,-7.6264e-06,-4.09e-06,0.0,0 STARLINK-4688,1 53714U 22107Q   24194.89221097 -.00000409  00000-0 -76264-5 0  9995,2 53714  53.2174  63.9366 0000983  90.3778 269.7326 15.08834551103011,6917.897,95.438,540.442,539.082,0.0
53714.0,STARLINK-4688,PAYLOAD,2024-07-13 08:32:28,15.08848328,0.0001185,53.2166,61.8556,90.317,269.7958,0.00025119,3.713e-05,0.0,0 STARLINK-4688,1 53714U 22107Q   24195.35588660  .00003713  00000-0  25119-3 0  9999,2 53714  53.2166  61.8556 0001185  90.3170 269.7958 15.08848328103086,6917.855,95.437,540.54,538.9,0.0
53714.0,STARLINK-4688,PAYLOAD,2024-07-13 21:15:33,15.0885644,0.0001219,53.2162,59.4772,87.3815,272.7316,0.00051605,7.938e-05,0.0,0 STARLINK-4688,1 53714U 22107Q   24195.88580400  .00007938  00000-0  51605-3 0  9993,2 53714  53.2162  59.4772 0001219  87.3815 272.7316 15.08856440103609,6917.83,95.437,540.538,538.852,0.0
